{
  "type": "FeatureCollection",
  "features": [
    {
      "type": "Feature",
      "properties": {
        "norad_id": 24946,
        "name": "IRIDIUM 33",
        "group": "iridium-33-debris",
        "lat": -48.18517463189787,
        "lon": -111.06870502307915,
        "alt_km": 778.5607660395817,
        "timestamp": "2025-12-20T16:47:36.669175+00:00",
        "meta_object_name": "IRIDIUM 33",
        "meta_object_id": "1997-051C",
        "meta_epoch": "2025-12-20T05:41:33.469152",
        "meta_mean_motion": 14.35042342,
        "meta_eccentricity": 0.0007926,
        "meta_inclination": 86.3865,
        "meta_ra_of_asc_node": 65.0747,
        "meta_arg_of_pericenter": 175.124,
        "meta_mean_anomaly": 185.0035,
        "meta_ephemeris_type": 0,
        "meta_classification_type": "U",
        "meta_norad_cat_id": 24946,
        "meta_element_set_no": 999,
        "meta_rev_at_epoch": 47942,
        "meta_bstar": 8.8822e-05,
        "meta_mean_motion_dot": 2.73e-06,
        "meta_mean_motion_ddot": 0,
        "tle_line1": "1 24946U 97051C   25354.23719293  .00000273  00000+0  88822-4 0  9995",
        "tle_line2": "2 24946  86.3865  65.0747 0007926 175.1240 185.0035 14.35042342479422"
      },
      "geometry": {
        "type": "Point",
        "coordinates": [
          -111.06870502307915,
          -48.18517463189787
        ]
      }
    },
    {
      "type": "Feature",
      "properties": {
        "norad_id": 33773,
        "name": "IRIDIUM 33 DEB",
        "group": "iridium-33-debris",
        "lat": 60.129389774898286,
        "lon": 63.50900656715644,
        "alt_km": 737.6878721304192,
        "timestamp": "2025-12-20T16:47:36.669217+00:00",
        "meta_object_name": "IRIDIUM 33 DEB",
        "meta_object_id": "1997-051L",
        "meta_epoch": "2025-12-20T04:52:02.271648",
        "meta_mean_motion": 14.43271484,
        "meta_eccentricity": 0.00130688,
        "meta_inclination": 86.4002,
        "meta_ra_of_asc_node": 57.4269,
        "meta_arg_of_pericenter": 124.763,
        "meta_mean_anomaly": 235.4803,
        "meta_ephemeris_type": 0,
        "meta_classification_type": "U",
        "meta_norad_cat_id": 33773,
        "meta_element_set_no": 999,
        "meta_rev_at_epoch": 88455,
        "meta_bstar": 0.00020331998,
        "meta_mean_motion_dot": 7.05e-06,
        "meta_mean_motion_ddot": 0,
        "tle_line1": "1 33773U 97051L   25354.20280407  .00000705  00000+0  20332-3 0  9991",
        "tle_line2": "2 33773  86.4002  57.4269 0013068 124.7630 235.4803 14.43271484884552"
      },
      "geometry": {
        "type": "Point",
        "coordinates": [
          63.50900656715644,
          60.129389774898286
        ]
      }
    },
    {
      "type": "Feature",
      "properties": {
        "norad_id": 33775,
        "name": "IRIDIUM 33 DEB",
        "group": "iridium-33-debris",
        "lat": 85.43746842032832,
        "lon": 173.30190922135438,
        "alt_km": 737.6833972375689,
        "timestamp": "2025-12-20T16:47:36.669233+00:00",
        "meta_object_name": "IRIDIUM 33 DEB",
        "meta_object_id": "1997-051N",
        "meta_epoch": "2025-12-20T09:46:27.262272",
        "meta_mean_motion": 14.41483487,
        "meta_eccentricity": 0.0015021,
        "meta_inclination": 86.3628,
        "meta_ra_of_asc_node": 46.28,
        "meta_arg_of_pericenter": 131.6576,
        "meta_mean_anomaly": 244.435,
        "meta_ephemeris_type": 0,
        "meta_classification_type": "U",
        "meta_norad_cat_id": 33775,
        "meta_element_set_no": 999,
        "meta_rev_at_epoch": 88251,
        "meta_bstar": 0.00022415,
        "meta_mean_motion_dot": 7.48e-06,
        "meta_mean_motion_ddot": 0,
        "tle_line1": "1 33775U 97051N   25354.40725998  .00000748  00000+0  22415-3 0  9995",
        "tle_line2": "2 33775  86.3628  46.2800 0015021 131.6576 244.4350 14.41483487882518"
      },
      "geometry": {
        "type": "Point",
        "coordinates": [
          173.30190922135438,
          85.43746842032832
        ]
      }
    },
    {
      "type": "Feature",
      "properties": {
        "norad_id": 33776,
        "name": "IRIDIUM 33 DEB",
        "group": "iridium-33-debris",
        "lat": -50.075160805252615,
        "lon": -98.25660250031994,
        "alt_km": 766.7215747248929,
        "timestamp": "2025-12-20T16:47:36.669247+00:00",
        "meta_object_name": "IRIDIUM 33 DEB",
        "meta_object_id": "1997-051P",
        "meta_epoch": "2025-12-20T12:26:17.262240",
        "meta_mean_motion": 14.38247887,
        "meta_eccentricity": 0.0015248,
        "meta_inclination": 86.4034,
        "meta_ra_of_asc_node": 77.5094,
        "meta_arg_of_pericenter": 165.3741,
        "meta_mean_anomaly": 205.5713,
        "meta_ephemeris_type": 0,
        "meta_classification_type": "U",
        "meta_norad_cat_id": 33776,
        "meta_element_set_no": 999,
        "meta_rev_at_epoch": 88194,
        "meta_bstar": 0.0002063,
        "meta_mean_motion_dot": 6.47e-06,
        "meta_mean_motion_ddot": 0,
        "tle_line1": "1 33776U 97051P   25354.51825535  .00000647  00000+0  20630-3 0  9991",
        "tle_line2": "2 33776  86.4034  77.5094 0015248 165.3741 205.5713 14.38247887881947"
      },
      "geometry": {
        "type": "Point",
        "coordinates": [
          -98.25660250031994,
          -50.075160805252615
        ]
      }
    },
    {
      "type": "Feature",
      "properties": {
        "norad_id": 33777,
        "name": "IRIDIUM 33 DEB",
        "group": "iridium-33-debris",
        "lat": 24.338905808153413,
        "lon": -149.90134516056455,
        "alt_km": 704.5656592626119,
        "timestamp": "2025-12-20T16:47:36.669259+00:00",
        "meta_object_name": "IRIDIUM 33 DEB",
        "meta_object_id": "1997-051Q",
        "meta_epoch": "2025-12-20T11:07:53.804352",
        "meta_mean_motion": 14.55663078,
        "meta_eccentricity": 0.000578,
        "meta_inclination": 86.3776,
        "meta_ra_of_asc_node": 31.8433,
        "meta_arg_of_pericenter": 215.2596,
        "meta_mean_anomaly": 144.823,
        "meta_ephemeris_type": 0,
        "meta_classification_type": "U",
        "meta_norad_cat_id": 33777,
        "meta_element_set_no": 999,
        "meta_rev_at_epoch": 88646,
        "meta_bstar": 0.00053491,
        "meta_mean_motion_dot": 2.356e-05,
        "meta_mean_motion_ddot": 0,
        "tle_line1": "1 33777U 97051Q   25354.46381718  .00002356  00000+0  53491-3 0  9996",
        "tle_line2": "2 33777  86.3776  31.8433 0005780 215.2596 144.8230 14.55663078886467"
      },
      "geometry": {
        "type": "Point",
        "coordinates": [
          -149.90134516056455,
          24.338905808153413
        ]
      }
    },
    {
      "type": "Feature",
      "properties": {
        "norad_id": 33850,
        "name": "IRIDIUM 33 DEB",
        "group": "iridium-33-debris",
        "lat": 85.22627169470847,
        "lon": 156.74018650728948,
        "alt_km": 737.268278571225,
        "timestamp": "2025-12-20T16:47:36.669272+00:00",
        "meta_object_name": "IRIDIUM 33 DEB",
        "meta_object_id": "1997-051T",
        "meta_epoch": "2025-12-19T23:55:02.065152",
        "meta_mean_motion": 14.42161662,
        "meta_eccentricity": 0.00129051,
        "meta_inclination": 86.3411,
        "meta_ra_of_asc_node": 27.0591,
        "meta_arg_of_pericenter": 139.2842,
        "meta_mean_anomaly": 265.4509,
        "meta_ephemeris_type": 0,
        "meta_classification_type": "U",
        "meta_norad_cat_id": 33850,
        "meta_element_set_no": 999,
        "meta_rev_at_epoch": 88257,
        "meta_bstar": 0.00025875399,
        "meta_mean_motion_dot": 8.72e-06,
        "meta_mean_motion_ddot": 0,
        "tle_line1": "1 33850U 97051T   25353.99655168  .00000872  00000+0  25875-3 0  9994",
        "tle_line2": "2 33850  86.3411  27.0591 0012905 139.2842 265.4509 14.42161662882578"
      },
      "geometry": {
        "type": "Point",
        "coordinates": [
          156.74018650728948,
          85.22627169470847
        ]
      }
    },
    {
      "type": "Feature",
      "properties": {
        "norad_id": 33853,
        "name": "IRIDIUM 33 DEB",
        "group": "iridium-33-debris",
        "lat": -33.98543127474582,
        "lon": -16.38342125488189,
        "alt_km": 963.7233054973522,
        "timestamp": "2025-12-20T16:47:36.669284+00:00",
        "meta_object_name": "IRIDIUM 33 DEB",
        "meta_object_id": "1997-051W",
        "meta_epoch": "2025-12-20T10:42:24.159744",
        "meta_mean_motion": 13.99101393,
        "meta_eccentricity": 0.0207261,
        "meta_inclination": 85.9998,
        "meta_ra_of_asc_node": 346.4315,
        "meta_arg_of_pericenter": 212.032,
        "meta_mean_anomaly": 275.1886,
        "meta_ephemeris_type": 0,
        "meta_classification_type": "U",
        "meta_norad_cat_id": 33853,
        "meta_element_set_no": 999,
        "meta_rev_at_epoch": 85453,
        "meta_bstar": 0.0010652,
        "meta_mean_motion_dot": 1.87e-05,
        "meta_mean_motion_ddot": 0,
        "tle_line1": "1 33853U 97051W   25354.44611296  .00001870  00000+0  10652-2 0  9997",
        "tle_line2": "2 33853  85.9998 346.4315 0207261 212.0320 275.1886 13.99101393854537"
      },
      "geometry": {
        "type": "Point",
        "coordinates": [
          -16.38342125488189,
          -33.98543127474582
        ]
      }
    }
  ]
}